CCSDS_OMM_VERS = 2.0
CREATION_DATE  = 
ORIGINATOR     = 

OBJECT_NAME    = SL-4 R/B
OBJECT_ID      = 2014-021B
CENTER_NAME    = EARTH
REF_FRAME      = TEME
TIME_SYSTEM    = UTC
MEAN_ELEMENT_THEORY = SGP/SGP4

EPOCH          = 2026-03-03T04:48:55.450656
MEAN_MOTION    = 15.38921077
ECCENTRICITY   = .00980977
INCLINATION    = 51.6082
RA_OF_ASC_NODE = 8.9286
ARG_OF_PERICENTER = 79.3446
MEAN_ANOMALY   = 281.8567

EPHEMERIS_TYPE = 0
CLASSIFICATION_TYPE = U
NORAD_CAT_ID   = 39679
ELEMENT_SET_NO = 999
REV_AT_EPOCH   = 65527
BSTAR          = .41513473E-3
MEAN_MOTION_DOT = .18805E-3
MEAN_MOTION_DDOT = 0

CCSDS_OMM_VERS = 2.0
CREATION_DATE  = 
ORIGINATOR     = 

OBJECT_NAME    = ALOS-2
OBJECT_ID      = 2014-029A
CENTER_NAME    = EARTH
REF_FRAME      = TEME
TIME_SYSTEM    = UTC
MEAN_ELEMENT_THEORY = SGP/SGP4

EPOCH          = 2026-03-03T15:09:59.469984
MEAN_MOTION    = 14.79476208
ECCENTRICITY   = .0001491
INCLINATION    = 97.9202
RA_OF_ASC_NODE = 161.3171
ARG_OF_PERICENTER = 98.9279
MEAN_ANOMALY   = 261.2101

EPHEMERIS_TYPE = 0
CLASSIFICATION_TYPE = U
NORAD_CAT_ID   = 39766
ELEMENT_SET_NO = 999
REV_AT_EPOCH   = 63597
BSTAR          = .43718184E-3
MEAN_MOTION_DOT = .3215E-4
MEAN_MOTION_DDOT = 0

CCSDS_OMM_VERS = 2.0
CREATION_DATE  = 
ORIGINATOR     = 

OBJECT_NAME    = YAOGAN-29
OBJECT_ID      = 2015-069A
CENTER_NAME    = EARTH
REF_FRAME      = TEME
TIME_SYSTEM    = UTC
MEAN_ELEMENT_THEORY = SGP/SGP4

EPOCH          = 2026-03-03T15:42:28.629792
MEAN_MOTION    = 14.82988460
ECCENTRICITY   = .0002288
INCLINATION    = 98.0150
RA_OF_ASC_NODE = 91.0677
ARG_OF_PERICENTER = 46.1813
MEAN_ANOMALY   = 313.9589

EPHEMERIS_TYPE = 0
CLASSIFICATION_TYPE = U
NORAD_CAT_ID   = 41038
ELEMENT_SET_NO = 999
REV_AT_EPOCH   = 55498
BSTAR          = .93030799E-4
MEAN_MOTION_DOT = .701E-5
MEAN_MOTION_DDOT = 0

CCSDS_OMM_VERS = 2.0
CREATION_DATE  = 
ORIGINATOR     = 

OBJECT_NAME    = ASTRO-H (HITOMI)
OBJECT_ID      = 2016-012A
CENTER_NAME    = EARTH
REF_FRAME      = TEME
TIME_SYSTEM    = UTC
MEAN_ELEMENT_THEORY = SGP/SGP4

EPOCH          = 2026-03-03T06:54:54.077760
MEAN_MOTION    = 15.09949072
ECCENTRICITY   = .00100156
INCLINATION    = 31.0005
RA_OF_ASC_NODE = 37.8551
ARG_OF_PERICENTER = 267.5295
MEAN_ANOMALY   = 92.4196

EPHEMERIS_TYPE = 0
CLASSIFICATION_TYPE = U
NORAD_CAT_ID   = 41337
ELEMENT_SET_NO = 999
REV_AT_EPOCH   = 55126
BSTAR          = .26589315E-3
MEAN_MOTION_DOT = .452E-4
MEAN_MOTION_DDOT = 0

CCSDS_OMM_VERS = 2.0
CREATION_DATE  = 
ORIGINATOR     = 

OBJECT_NAME    = HXMT (HUIYAN)
OBJECT_ID      = 2017-034A
CENTER_NAME    = EARTH
REF_FRAME      = TEME
TIME_SYSTEM    = UTC
MEAN_ELEMENT_THEORY = SGP/SGP4

EPOCH          = 2026-03-03T11:00:11.814048
MEAN_MOTION    = 15.17363580
ECCENTRICITY   = .00322447
INCLINATION    = 43.0149
RA_OF_ASC_NODE = 51.3128
ARG_OF_PERICENTER = 197.7187
MEAN_ANOMALY   = 162.2538

EPHEMERIS_TYPE = 0
CLASSIFICATION_TYPE = U
NORAD_CAT_ID   = 42758
ELEMENT_SET_NO = 999
REV_AT_EPOCH   = 48159
BSTAR          = .33103456E-3
MEAN_MOTION_DOT = .6583E-4
MEAN_MOTION_DDOT = 0

CCSDS_OMM_VERS = 2.0
CREATION_DATE  = 
ORIGINATOR     = 

OBJECT_NAME    = SAOCOM 1A
OBJECT_ID      = 2018-076A
CENTER_NAME    = EARTH
REF_FRAME      = TEME
TIME_SYSTEM    = UTC
MEAN_ELEMENT_THEORY = SGP/SGP4

EPOCH          = 2026-03-03T16:25:46.339968
MEAN_MOTION    = 14.82163084
ECCENTRICITY   = .00013153
INCLINATION    = 97.8882
RA_OF_ASC_NODE = 250.9418
ARG_OF_PERICENTER = 83.2826
MEAN_ANOMALY   = 276.8537

EPHEMERIS_TYPE = 0
CLASSIFICATION_TYPE = U
NORAD_CAT_ID   = 43641
ELEMENT_SET_NO = 999
REV_AT_EPOCH   = 40047
BSTAR          = .15131421E-3
MEAN_MOTION_DOT = .1153E-4
MEAN_MOTION_DDOT = 0

CCSDS_OMM_VERS = 2.0
CREATION_DATE  = 
ORIGINATOR     = 

OBJECT_NAME    = H-2A R/B
OBJECT_ID      = 2018-084L
CENTER_NAME    = EARTH
REF_FRAME      = TEME
TIME_SYSTEM    = UTC
MEAN_ELEMENT_THEORY = SGP/SGP4

EPOCH          = 2026-03-03T13:33:31.413024
MEAN_MOTION    = 15.41030376
ECCENTRICITY   = .00258288
INCLINATION    = 98.8736
RA_OF_ASC_NODE = 278.6455
ARG_OF_PERICENTER = 46.0108
MEAN_ANOMALY   = 314.3257

EPHEMERIS_TYPE = 0
CLASSIFICATION_TYPE = U
NORAD_CAT_ID   = 43682
ELEMENT_SET_NO = 999
REV_AT_EPOCH   = 40483
BSTAR          = .61480725E-3
MEAN_MOTION_DOT = .25622E-3
MEAN_MOTION_DDOT = 0

CCSDS_OMM_VERS = 2.0
CREATION_DATE  = 
ORIGINATOR     = 

OBJECT_NAME    = SAOCOM 1B
OBJECT_ID      = 2020-059A
CENTER_NAME    = EARTH
REF_FRAME      = TEME
TIME_SYSTEM    = UTC
MEAN_ELEMENT_THEORY = SGP/SGP4

EPOCH          = 2026-03-03T15:33:31.189824
MEAN_MOTION    = 14.82163396
ECCENTRICITY   = .00014419
INCLINATION    = 97.8882
RA_OF_ASC_NODE = 250.0040
ARG_OF_PERICENTER = 80.8659
MEAN_ANOMALY   = 279.2717

EPHEMERIS_TYPE = 0
CLASSIFICATION_TYPE = U
NORAD_CAT_ID   = 46265
ELEMENT_SET_NO = 999
REV_AT_EPOCH   = 29785
BSTAR          = .10566121E-4
MEAN_MOTION_DOT = .32E-6
MEAN_MOTION_DDOT = 0

CCSDS_OMM_VERS = 2.0
CREATION_DATE  = 
ORIGINATOR     = 

OBJECT_NAME    = CSS (TIANHE)
OBJECT_ID      = 2021-035A
CENTER_NAME    = EARTH
REF_FRAME      = TEME
TIME_SYSTEM    = UTC
MEAN_ELEMENT_THEORY = SGP/SGP4

EPOCH          = 2026-03-03T15:15:24.770304
MEAN_MOTION    = 15.60349781
ECCENTRICITY   = .00066775
INCLINATION    = 41.4661
RA_OF_ASC_NODE = 244.9905
ARG_OF_PERICENTER = 238.9033
MEAN_ANOMALY   = 121.1151

EPHEMERIS_TYPE = 0
CLASSIFICATION_TYPE = U
NORAD_CAT_ID   = 48274
ELEMENT_SET_NO = 999
REV_AT_EPOCH   = 27666
BSTAR          = .3726307E-3
MEAN_MOTION_DOT = .31226E-3
MEAN_MOTION_DDOT = 0

CCSDS_OMM_VERS = 2.0
CREATION_DATE  = 
ORIGINATOR     = 

OBJECT_NAME    = COSMOS 2550
OBJECT_ID      = 2021-056A
CENTER_NAME    = EARTH
REF_FRAME      = TEME
TIME_SYSTEM    = UTC
MEAN_ELEMENT_THEORY = SGP/SGP4

EPOCH          = 2026-03-03T14:00:09.162432
MEAN_MOTION    = 15.33843676
ECCENTRICITY   = .00083562
INCLINATION    = 67.1426
RA_OF_ASC_NODE = 59.4018
ARG_OF_PERICENTER = 269.0710
MEAN_ANOMALY   = 90.9487

EPHEMERIS_TYPE = 0
CLASSIFICATION_TYPE = U
NORAD_CAT_ID   = 48865
ELEMENT_SET_NO = 999
REV_AT_EPOCH   = 26252
BSTAR          = .16773E-7
MEAN_MOTION_DOT = -.191E-5
MEAN_MOTION_DDOT = 0

CCSDS_OMM_VERS = 2.0
CREATION_DATE  = 
ORIGINATOR     = 

OBJECT_NAME    = CZ-2C R/B
OBJECT_ID      = 2022-058K
CENTER_NAME    = EARTH
REF_FRAME      = TEME
TIME_SYSTEM    = UTC
MEAN_ELEMENT_THEORY = SGP/SGP4

EPOCH          = 2026-03-03T05:03:18.537408
MEAN_MOTION    = 15.53679339
ECCENTRICITY   = .00421804
INCLINATION    = 50.1905
RA_OF_ASC_NODE = 351.6043
ARG_OF_PERICENTER = 173.2115
MEAN_ANOMALY   = 186.9436

EPHEMERIS_TYPE = 0
CLASSIFICATION_TYPE = U
NORAD_CAT_ID   = 52794
ELEMENT_SET_NO = 999
REV_AT_EPOCH   = 20912
BSTAR          = .53677883E-3
MEAN_MOTION_DOT = .36042E-3
MEAN_MOTION_DDOT = 0

CCSDS_OMM_VERS = 2.0
CREATION_DATE  = 
ORIGINATOR     = 

OBJECT_NAME    = CZ-2C R/B
OBJECT_ID      = 2022-132E
CENTER_NAME    = EARTH
REF_FRAME      = TEME
TIME_SYSTEM    = UTC
MEAN_ELEMENT_THEORY = SGP/SGP4

EPOCH          = 2026-03-03T12:57:48.397536
MEAN_MOTION    = 15.61225239
ECCENTRICITY   = .00207753
INCLINATION    = 97.2955
RA_OF_ASC_NODE = 65.6729
ARG_OF_PERICENTER = 110.7693
MEAN_ANOMALY   = 249.5793

EPHEMERIS_TYPE = 0
CLASSIFICATION_TYPE = U
NORAD_CAT_ID   = 54039
ELEMENT_SET_NO = 999
REV_AT_EPOCH   = 18941
BSTAR          = .6256208E-3
MEAN_MOTION_DOT = .53653E-3
MEAN_MOTION_DDOT = 0

