SL-4 R/B                
1 39679U 14021B   26062.20064179  .00018805  00000+0  41513-3 0  9995
2 39679  51.6082   8.9286 0098097  79.3446 281.8567 15.38921077655272
ALOS-2                  
1 39766U 14029A   26062.63193831  .00003215  00000+0  43718-3 0  9993
2 39766  97.9202 161.3171 0001491  98.9279 261.2101 14.79476208635972
YAOGAN-29               
1 41038U 15069A   26062.65449803  .00000701  00000+0  93031-4 0  9999
2 41038  98.0150  91.0677 0002288  46.1813 313.9589 14.82988460554983
ASTRO-H (HITOMI)        
1 41337U 16012A   26062.28812590  .00004520  00000+0  26589-3 0  9992
2 41337  31.0005  37.8551 0010015 267.5295  92.4196 15.09949072551267
HXMT (HUIYAN)           
1 42758U 17034A   26062.45847007  .00006583  00000+0  33103-3 0  9996
2 42758  43.0149  51.3128 0032244 197.7187 162.2538 15.17363580481597
SAOCOM 1A               
1 43641U 18076A   26062.68456412  .00001153  00000+0  15131-3 0  9995
2 43641  97.8882 250.9418 0001315  83.2826 276.8537 14.82163084400470
H-2A R/B                
1 43682U 18084L   26062.56494691  .00025622  00000+0  61481-3 0  9993
2 43682  98.8736 278.6455 0025828  46.0108 314.3257 15.41030376404831
SAOCOM 1B               
1 46265U 20059A   26062.64827766  .00000032  00000+0  10566-4 0  9997
2 46265  97.8882 250.0040 0001441  80.8659 279.2717 14.82163396297853
CSS (TIANHE)            
1 48274U 21035A   26062.63570336  .00031226  00000+0  37263-3 0  9992
2 48274  41.4661 244.9905 0006677 238.9033 121.1151 15.60349781276669
COSMOS 2550             
1 48865U 21056A   26062.58343938 -.00000191  00000+0  16773-7 0  9996
2 48865  67.1426  59.4018 0008356 269.0710  90.9487 15.33843676262523
CZ-2C R/B               
1 52794U 22058K   26062.21063122  .00036042  00000+0  53678-3 0  9993
2 52794  50.1905 351.6043 0042180 173.2115 186.9436 15.53679339209128
CZ-2C R/B               
1 54039U 22132E   26062.54014349  .00053653  00000+0  62562-3 0  9992
2 54039  97.2955  65.6729 0020775 110.7693 249.5793 15.61225239189411
